,NAME OF EVACUATION CENTER,ADDRESS,INDIVIDUAL CAPACITY,LATITUDE,LONGITUDE
0,Camiling Sports Complex,"Brgy. Poblacion 8 Camlling, Tadac",300,15.68754167 | 120.4,139
1,‘Adventist multigrade Schoel |,"Brgy Poblacion J Camiling, Tarlac",80,"15.6874 120,4",08
2,Anoling 1st Barangoy Hall,"Brgy. Ancling 1st Camiling, Tarlac",40,15.6550999 | 120.3,949966
3,,Anoling 2nd Barangay Hall__| Tarlac,30,15.6473999 | 120.3,889999
4,,Anpling 2nd Elem. School Tarlac,150,15.6470003 | 120.3,889999
5,Hall,"Brgy. Ancling 3rd Camiling, Tarlac",100,15.6422997 120.3,809967
6,Bacabac Barangay Hall,"Brgy. Bacabac Camiling, Tarlac",75,15.7271994 120.4,280014
7,Bacsay Baangay Chapel,Bray. Bacsay Camiling Tarlac,100,15.6458998 120.3,450012
8,Bacsay Barangay Hall,Brgy. Bacsay Camiling Tarlac,60,15.6456003 120.3,440018
9,Bacsay Child Devt Center,Brgy. Bacsay Camiling Tarlac,30,15.6456003 120.3,440018
10,Bacsay Multi-Purpose Hall,Brgy. Bacsay Camiling Tarlac,85,15.6456 120.3,44
11,Bancay 1st Barangey Hall,"Brgy. Boncay 1st Camiling, Tarlac",50,15.676 120.4,57
12,Bancay Ist elem School,"Brgy. Bancay Ist Camiling, Tarlac",150,15.672 120.4,51
13,Bobon 1st Elem School,Brgy Bobon 1st Camiling. Tarlac,200,15.6887999 | 120.3,880005
14,Bobon 2nd Barangay Hall,"Brgy. Bobon 2nd Camiling, Tarlac",50,15.6681995 | 120.3,87001
15,Center,"Brgy. Bobon 2nd Camiling, Tarlac",30,15.6681995 120.3,87001
16,bldg,Bray. Bobon 2nd Camiling. Tarlac,70,15.6681995 120.3,87001
17,Bobon Caarosipan,,,,
18,,Barangay Hall Tarlac,50,15.6644001 120.3,87001
19,Bobon Caarosipan Child,,,,
20,,Devt. Center Tarlac,23,15.6644001 120.3,87001
21,Center,Brgy. Florida Camiling. Tarlac,20,15.7018 120.4,73
22,Cabanabaan Barangay,,,,
23,,Hall Tarlac,40,15.6513 120.4,24
24,Cabanabaan Child Devt,,,,
25,,Center Tarlac,70,15.6515 120.4,25
26,,Cabanobaoan Elem School | Tarlac,245,15.6517 120.4,24
27,Cabanabaan multipurpose |,,,,
28,,hail Tarlac,90,15.6515 120.4,24
29,Multipurpose Hall,Brgy. Cacamilingan Sur,160,15.6868 120.4,14
30,,"School Poblacion H Camiling, Tarlac",300,15.6868 120.4,14
31,industries :,"Brgy. Sinilian 1st Camiling, Tarlac",60,15.6951 120.4,59
32,,"School Camilind, Tarlac",300,15.690591 120.4,07554
33,Center,"Brgy. Canlag Camiling, Tanae",30,15.7278 120.4,48
34,,"Building ~~ 1#Bigy Conlag Coming, Tarlac",40,15.7279 120.4,48
35,Carael Barangay Chapel __|,,"Brgy. Carael Camiling, Tarlac 2",,
36,Cargel Barangay Hall,"Brgy. Carael Camiing, Tarlac",40,15.7246 120.4,6
37,Cargel Elemenraty School,"Bray. Carael Camliing, Tarlac",60,15.7254 120.4,4
38,Cayaoan Barangay Hall,"Brgy. Cayaoan Camiling, Tarlac",50,15.6964998 | 120.4,160004
39,Cayaoan Elem School,"Bray. Cayaoan Camiling, Tarlac",,300 156962996 | 120.4,150009
40,Cayasan Barangay Hall,"Brgy Coyasan Camiling, Tarlac",,,
41,Cayasan child Devt center |,"Bray Cayasan Camiling, Tarlac",15,15.6736002 | 120.3,637784
42,Florida barangay Hall,"Brgy. Florida Camiling, Tarlac",30,15.7018 120.4,73
43,Covered Court,"Brgy. Florida Camiling, Tarlac",100,15.7008 120.4,74
44,Lasong Multi-Purpose hall,"Brgy. Lasong Camiling, Tarlac",100,15.6914 120.4,78
45,Libueg Barangay Hall,"Bray. Libueg Camiling, Tarlac",40,15.7063999 | 120.4,179993
46,Libueg Multipurpose bldg.,"Brgy. Libueg Camiling, Tarlac",70,15.7059002 120.4,179993
47,,Malacampa Barangay Hall | Tarlac,50,15.6492 120.4,09
48,,"Manaquem Covered Court | Bgy. Managuem Camiling, Tarlac",100,15.6533003 120.3,769989
49,Marawi Elem. School,"Brgy. Marawi Camiling, Tarlac",100,15.6855 120.4,65
50,Marowi Natl. High School,"Brgy. Marawi Camiling, Tarlac",100,15.6833 120.4,63
51,Matubog Barangay Hall,"Brgy Matubog, Camiling Tarlac",98,15.6861 120.4,46
52,Nagaseralan Barangay Hall |,Brgy. Nagserialan Cariling. Tarlac,60,15.6862 120.4,54
53,Nagrambacan Barangay,,,,
54,,Hall Tarlac,40,15.6562996 120.3,809967
55,Nagrambacan Child Devt. |,,,,
56,,Center Tarlac,30,15.6562996 120.3,809967
57,Center,"Brgy. Nagserialan Camiling, Tarlac",30,15.6862 120.4,54
58,Palimbo Proper Barangay,,,,
59,,Chapel Tarlac,10,15.690804 120.3,98138
60,Palimbo Proper Barangay,,,,
61,,Hall Tarlac,50,15.6922998 120.3,889999
62,Paimbo Proper Child Devt. |,,,,
63,,Center Tarlac,50,15.6921997 120.3,880005
64,,Palimbo Proper GMAC Tarlac,10,15.690804 120.3,98138
65,Poo 2nd Barangay Hall,"Brgy Pao 2nd Camiling, Tarlac",40,15.6719999 120.3,990021
66,Pao 2nd Covered Court,"Brgy Pao 2nd Camiling, Tarlac",100,15.686815 120.4,13755
67,Papaac multi-purpose Hall,"Brgy. Papaac Camiling, Tarlac",100,15.6405001 120.3,270035
68,,Pindanagan 1st Elem School | Tarlac,300,15.7384005 | 120.4,329987
69,Pindangan 1st Barangay,,,,
70,,Hall Tarlac,25,15.689683 120.4,25712 |
71,,"Multipurpose Hall Camiling, Tarlac",75,15.7432003 120.4,13002
72,Poblacion E Barangay Hall |,"Brgy Poblacion E Camiling, Tarlac",200,15.706086 120.4,17619
73,Poblacion | Barangay Half,Brgy. poblacion | Camiling Tarlac,25,15.6837 120.4,1
74,San Isidro Barangay Hall,"Bray. San Isidro Camiling, Tarlac",25,15.6701 120.4,65
75,Development Center,"Brgy. San isidre Camiing, Tarlac",15,15.6701 120.4,65
76,Covered Cowrt |,"Brgy. San sido Camiling, Tarlac",100,15.6662 120.4,66
77,Sawat Barangay Holl |,Brgy Sawal Camiling tarda,50,15.7167 120.4,29
78,Sowat evacuation Center |,Bray Sawal Comiling tardac,80,15.7169 120.4,27
79,Sinan 1st Borangay Hall |,,"Brgy. Sinflian 1st Camiling, Tarlac 0","15.6946 120,4",59
80,School,"Brgy. Sinifian Ist Camiling, Tarlac",60,15.6936 120.4,6
81,Sinfion 2nd Barangay Hall,"Bray. Sinflian 2nd Camiling, Tarlac",20,15.7077 120.4,53
82,Development Center,"Bray. Sinifian 2nd Camiling, Tardac",30,15.7077 120.4,53
83,Sinfian 2nd Elem School,"Brgy. Siniian 2nd Camiling, Tarlac",60,15.7078 120.4,54
84,building,"Brgy. Sinilian 2nd Camiling, Tarlac",40,15.7077 120.4,53
85,Sinlian 3rd Barangay Hall,"Brgy. Sinllian 3rd Camiling, Tarlac",50,15.7136 120.4,52
86,Center,"Brgy. Sinilian 3rd Camiling, Tarlac",20,15.7135 120.4,52
87,,Barangay Hall Camiling. Tarlac,60,15.6964 120.4,56
88,,"Devt center Camiling, Tarlac",30,15.6964 120.4,56
89,,Sinulatan 1st Barangay Hall | Tarlac,60,15.7139997 120.3,949966
90,,Center Tarlac,30,15.7144003 120.3,949966
91,,Sinuiatan 2nd Barangay Hall | Tarlac,10,15.716452 120.3,94665
92,Sta. Maria Barangay Hall,"Brgy. Sta Maria Camiling, Tarlac",50,15.6419 120.4,26
93,Ceneir,"Brgy. Sta Maria Camiling, Tarlac",30,15.6359 120.4,24
94,Sta. Maria Elem School,"Brgy. Sta Maria Camiling, Tarlac",200,15.6424 120.4,26
95,and evacuation center,"Brgy. Surgui 2nd Camiling, Tarlac",200,15.6753 120.4,15
96,Holl,"Brgy. Tambugan Camiling, Tarlac",50,15.7019 120.4,17
97,,Telabang Multipurpos Hall Tarlac,75,15.6545 120.4,06
98,Tuec Barangay Hall,"Brgy. Tuec Camiling, Tarlac",30,15.663299 120.4,11815
99,Tuec Covered €60r),"Bray. Tuec Camiling, Tarlac",70,15.663299 120.4,11815
